0 FENGYUN 1C DEB
1 31074U 99025BFU 13280.78490264  .00001652  00000-0  12644-2 0  9009
2 31074 099.0012 208.4348 0110681 316.0198 108.1401 13.91963893333569
0 FENGYUN 1C DEB
1 31074U 99025BFU 13282.79726816  .00001645  00000-0  12591-2 0  9011
2 31074 099.0014 210.3893 0110480 310.5418 112.2577 13.91976149333848
0 FENGYUN 1C DEB
1 31074U 99025BFU 13285.25985360  .00001475  00000-0  11321-2 0  9028
2 31074 099.0019 212.7808 0110172 303.8372 212.5654 13.91987014334188
0 FENGYUN 1C DEB
1 31074U 99025BFU 13287.33818047  .00001927  00000-0  14688-2 0  9038
2 31074 099.0018 214.7986 0110125 298.2246 187.3427 13.91992632334472
0 FENGYUN 1C DEB
1 31074U 99025BFU 13289.77002329  .00002336  00000-0  17743-2 0  9047
2 31074 099.0022 217.1603 0109708 291.6096 133.7701 13.92004974334817
0 FENGYUN 1C DEB
1 31074U 99025BFU 13292.08130690  .00002381  00000-0  18081-2 0  9055
2 31074 099.0024 219.4050 0109302 285.3104 196.1543 13.92013268335139
0 FENGYUN 1C DEB
1 31074U 99025BFU 13294.09343453  .00002918  00000-0  22085-2 0  9067
2 31074 099.0025 221.3597 0108969 279.8213 199.4670 13.92021708335411
